{
"type": "FeatureCollection",
"name": "predictions",
"crs": { "type": "name", "properties": { "name": "urn:ogc:def:crs:OGC:1.3:CRS84" } },
"features": [
{ "type": "Feature", "properties": { "plot_number": "1", "status": "flagged", "confidence": 0.63, "method_note": "Simple automatic boundary shift detection" }, "geometry": { "type": "MultiPolygon", "coordinates": [ [ [ [ 74.031762293, 20.252892413 ], [ 74.031061962, 20.252868986 ], [ 74.031058663, 20.25291503 ], [ 74.031044534, 20.253147782 ], [ 74.031004799, 20.253802328 ], [ 74.030996454, 20.253939798 ], [ 74.031203459, 20.253933777 ], [ 74.031196593, 20.253668195 ], [ 74.031757808, 20.253660483 ], [ 74.031776222, 20.253136421 ], [ 74.031762293, 20.252892413 ] ] ] ] } },
{ "type": "Feature", "properties": { "plot_number": "10", "status": "corrected", "confidence": 0.84, "method_note": "Simple automatic boundary shift detection" }, "geometry": { "type": "MultiPolygon", "coordinates": [ [ [ [ 74.031094429802806, 20.253338613799507 ], [ 74.030722227802812, 20.253311583799505 ], [ 74.030690073802816, 20.253773910799506 ], [ 74.031080300802813, 20.253571365799505 ], [ 74.031094429802806, 20.253338613799507 ] ] ] ] } },
{ "type": "Feature", "properties": { "plot_number": "100", "status": "corrected", "confidence": 0.75, "method_note": "Simple automatic boundary shift detection" }, "geometry": { "type": "MultiPolygon", "coordinates": [ [ [ [ 74.026056712938782, 20.261491675971001 ], [ 74.02604757993879, 20.261479044971001 ], [ 74.026040710938787, 20.261469145971002 ], [ 74.026034045938786, 20.261459140971002 ], [ 74.026027584938788, 20.261449031971001 ], [ 74.026021329938786, 20.261438820971001 ], [ 74.026015282938786, 20.261428512971001 ], [ 74.026009446938787, 20.261418111971 ], [ 74.026003821938787, 20.261407618971003 ], [ 74.025998410938783, 20.261397037971001 ], [ 74.025993216938787, 20.261386372971003 ], [ 74.02598823793879, 20.261375623971002 ], [ 74.025983477938794, 20.261364798971002 ], [ 74.025976595938786, 20.261348029971003 ], [ 74.025973458938793, 20.261341216971001 ], [ 74.025970183938782, 20.261334455971003 ], [ 74.025966773938791, 20.261327748971002 ], [ 74.025963226938785, 20.261321096971002 ], [ 74.02595954593879, 20.261314502971 ], [ 74.02595573093879, 20.261307967971003 ], [ 74.025951784938783, 20.261301494971001 ], [ 74.025947707938784, 20.261295084971003 ], [ 74.025943500938794, 20.261288740971001 ], [ 74.025939165938794, 20.261282463971003 ], [ 74.025934703938788, 20.261276255971001 ], [ 74.025929349938792, 20.261269118971001 ], [ 74.025826049938786, 20.261444671971002 ], [ 74.025805460938784, 20.261479660971002 ], [ 74.025616340938782, 20.261405265971003 ], [ 74.025576575938786, 20.261389623971002 ], [ 74.025575422938786, 20.261408218971003 ], [ 74.025574641938789, 20.261426822971004 ], [ 74.025574233938784, 20.261445427971001 ], [ 74.025574093938786, 20.261463959971003 ], [ 74.025574537938795, 20.261482618971002 ], [ 74.025574788938783, 20.261489145971002 ], [ 74.026085709938783, 20.262394956971001 ], [ 74.026190493938785, 20.262947249971003 ], [ 74.026182472938785, 20.263002982971003 ], [ 74.026644334938794, 20.262890603971002 ], [ 74.026617155938794, 20.262702592971003 ], [ 74.026757501938789, 20.262669937971001 ], [ 74.026592042938788, 20.261940212971002 ], [ 74.026562853938785, 20.261811476971001 ], [ 74.026171216938792, 20.261616507971002 ], [ 74.026165927938791, 20.261611821971002 ], [ 74.026154905938782, 20.261601699971003 ], [ 74.026144092938793, 20.261591408971004 ], [ 74.026133492938783, 20.261580950971002 ], [ 74.026123107938787, 20.261570328971001 ], [ 74.026112941938791, 20.261559546971004 ], [ 74.026102997938793, 20.261548607971001 ], [ 74.026093278938788, 20.261537515971003 ], [ 74.026083788938791, 20.261526271971004 ], [ 74.026074528938793, 20.261514881971003 ], [ 74.026065501938788, 20.261503348971001 ], [ 74.026056712938782, 20.261491675971001 ] ] ] ] } },
{ "type": "Feature", "properties": { "plot_number": "1000", "status": "corrected", "confidence": 0.9, "method_note": "Simple automatic boundary shift detection" }, "geometry": { "type": "MultiPolygon", "coordinates": [ [ [ [ 74.050070910403164, 20.228159863711522 ], [ 74.050071153403167, 20.22802313271152 ], [ 74.049849202403166, 20.228020317711522 ], [ 74.049763813403175, 20.228155443711522 ], [ 74.049448138403164, 20.228654981711522 ], [ 74.049442407403163, 20.228714740711521 ], [ 74.049652721403163, 20.22998935571152 ], [ 74.04972841640317, 20.23049434271152 ], [ 74.049861841403171, 20.230484849711523 ], [ 74.050070450403169, 20.230447109711523 ], [ 74.050069270403171, 20.229081949711521 ], [ 74.050070910403164, 20.228159863711522 ] ] ] ] } },
{ "type": "Feature", "properties": { "plot_number": "1001", "status": "flagged", "confidence": 0.62, "method_note": "Simple automatic boundary shift detection" }, "geometry": { "type": "MultiPolygon", "coordinates": [ [ [ [ 74.051949333, 20.230565365 ], [ 74.051954936, 20.229920722 ], [ 74.051855775, 20.229933407 ], [ 74.050806685, 20.230125633 ], [ 74.050777952, 20.230130898 ], [ 74.050307773, 20.230219129 ], [ 74.050099164, 20.230256869 ], [ 74.049965739, 20.230266362 ], [ 74.049783483, 20.230631117 ], [ 74.049383192, 20.231432226 ], [ 74.049377669, 20.231443279 ], [ 74.049229021, 20.231740769 ], [ 74.049186489, 20.231866022 ], [ 74.049406604, 20.231834087 ], [ 74.050328798, 20.23173909 ], [ 74.050745917, 20.23169612 ], [ 74.050703876, 20.230928118 ], [ 74.050818519, 20.230894727 ], [ 74.051949333, 20.230565365 ] ] ] ] } },
{ "type": "Feature", "properties": { "plot_number": "1002", "status": "corrected", "confidence": 0.92, "method_note": "Simple automatic boundary shift detection" }, "geometry": { "type": "MultiPolygon", "coordinates": [ [ [ [ 74.052800963124341, 20.233362154382149 ], [ 74.051990028124337, 20.231475915382148 ], [ 74.051834656124342, 20.231513179382148 ], [ 74.051352455124345, 20.231598774382149 ], [ 74.051396675124337, 20.23179818538215 ], [ 74.050678781124347, 20.232086055382148 ], [ 74.050382446124345, 20.232204882382149 ], [ 74.050419803124342, 20.23279237638215 ], [ 74.050680063124346, 20.232685218382148 ], [ 74.050975216124343, 20.232563694382147 ], [ 74.051606392124341, 20.232325399382148 ], [ 74.051859462124341, 20.233010488382149 ], [ 74.052145636124337, 20.23375611538215 ], [ 74.052413220124336, 20.233588583382147 ], [ 74.052800963124341, 20.233362154382149 ] ] ] ] } },
{ "type": "Feature", "properties": { "plot_number": "1003", "status": "flagged", "confidence": 0.59, "method_note": "Simple automatic boundary shift detection" }, "geometry": { "type": "MultiPolygon", "coordinates": [ [ [ [ 74.053154679, 20.231638453 ], [ 74.052905065, 20.23113274 ], [ 74.052378857, 20.231352586 ], [ 74.053189792, 20.233238825 ], [ 74.053808509, 20.232875328 ], [ 74.053154679, 20.231638453 ] ] ] ] } },
{ "type": "Feature", "properties": { "plot_number": "1004", "status": "corrected", "confidence": 0.81, "method_note": "Simple automatic boundary shift detection" }, "geometry": { "type": "MultiPolygon", "coordinates": [ [ [ [ 74.054567831891504, 20.233193021420902 ], [ 74.054362208891504, 20.232550004420901 ], [ 74.054179523891506, 20.2326757564209 ], [ 74.053260925891493, 20.233201523420902 ], [ 74.052435208891495, 20.233664648420902 ], [ 74.052632038891502, 20.234374497420902 ], [ 74.052726551891496, 20.234774152420901 ], [ 74.053845994891503, 20.2343448964209 ], [ 74.054801936891494, 20.233967360420902 ], [ 74.054737983891499, 20.2337485214209 ], [ 74.054567831891504, 20.233193021420902 ] ] ] ] } },
{ "type": "Feature", "properties": { "plot_number": "1005", "status": "corrected", "confidence": 0.76, "method_note": "Simple automatic boundary shift detection" }, "geometry": { "type": "MultiPolygon", "coordinates": [ [ [ [ 74.0547998053529, 20.234389124187654 ], [ 74.054702879352888, 20.234054675187654 ], [ 74.053746937352898, 20.234432211187652 ], [ 74.05400731135289, 20.235192020187654 ], [ 74.054948067352896, 20.234840580187655 ], [ 74.0547998053529, 20.234389124187654 ] ] ] ] } },
{ "type": "Feature", "properties": { "plot_number": "1006", "status": "corrected", "confidence": 0.83, "method_note": "Simple automatic boundary shift detection" }, "geometry": { "type": "MultiPolygon", "coordinates": [ [ [ [ 74.054066621473581, 20.234617973209492 ], [ 74.053889786473576, 20.234561684209492 ], [ 74.053880533473588, 20.23484217920949 ], [ 74.054055768473589, 20.234916686209491 ], [ 74.054066621473581, 20.234617973209492 ] ] ] ] } },
{ "type": "Feature", "properties": { "plot_number": "1007", "status": "corrected", "confidence": 0.88, "method_note": "Simple automatic boundary shift detection" }, "geometry": { "type": "MultiPolygon", "coordinates": [ [ [ [ 74.053774728752131, 20.235201533259044 ], [ 74.053514354752139, 20.234441724259042 ], [ 74.052394911752131, 20.234870980259043 ], [ 74.052449680752133, 20.235089119259044 ], [ 74.05260834075213, 20.235536473259042 ], [ 74.053774728752131, 20.235201533259044 ] ], [ [ 74.05304987275214, 20.234966073259042 ], [ 74.053059125752128, 20.234685578259043 ], [ 74.053235960752133, 20.234741867259043 ], [ 74.053225107752141, 20.235040580259042 ], [ 74.05304987275214, 20.234966073259042 ] ] ] ] } },
{ "type": "Feature", "properties": { "plot_number": "1008", "status": "flagged", "confidence": 0.56, "method_note": "Simple automatic boundary shift detection" }, "geometry": { "type": "MultiPolygon", "coordinates": [ [ [ [ 74.05286921, 20.234805878 ], [ 74.052774697, 20.234406223 ], [ 74.051326792, 20.235054731 ], [ 74.051463288, 20.235262399 ], [ 74.051696331, 20.235625579 ], [ 74.052923979, 20.235024017 ], [ 74.05286921, 20.234805878 ] ] ] ] } },
{ "type": "Feature", "properties": { "plot_number": "1009", "status": "flagged", "confidence": 0.65, "method_note": "Simple automatic boundary shift detection" }, "geometry": { "type": "MultiPolygon", "coordinates": [ [ [ [ 74.052774697, 20.234406223 ], [ 74.052577867, 20.233696374 ], [ 74.052464702, 20.233773696 ], [ 74.050964761, 20.234482197 ], [ 74.051250173, 20.234944959 ], [ 74.051326792, 20.235054731 ], [ 74.052774697, 20.234406223 ] ] ] ] } },
{ "type": "Feature", "properties": { "plot_number": "101", "status": "flagged", "confidence": 0.63, "method_note": "Simple automatic boundary shift detection" }, "geometry": { "type": "MultiPolygon", "coordinates": [ [ [ [ 74.026758183, 20.263182621 ], [ 74.026715877, 20.263024442 ], [ 74.026575531, 20.263057097 ], [ 74.02660271, 20.263245108 ], [ 74.026691776, 20.263227127 ], [ 74.026758183, 20.263182621 ] ] ] ] } },
{ "type": "Feature", "properties": { "plot_number": "1010", "status": "corrected", "confidence": 0.82, "method_note": "Simple automatic boundary shift detection" }, "geometry": { "type": "MultiPolygon", "coordinates": [ [ [ [ 74.052751176612787, 20.233712242085591 ], [ 74.052465002612792, 20.232966615085591 ], [ 74.051366727612788, 20.233500904085592 ], [ 74.051074118612789, 20.233643251085589 ], [ 74.051114319612793, 20.23446253208559 ], [ 74.05121217561279, 20.23443492108559 ], [ 74.05192464661279, 20.23410794708559 ], [ 74.052751176612787, 20.233712242085591 ] ] ] ] } },
{ "type": "Feature", "properties": { "plot_number": "1011", "status": "corrected", "confidence": 0.79, "method_note": "Simple automatic boundary shift detection" }, "geometry": { "type": "MultiPolygon", "coordinates": [ [ [ [ 74.052574426996316, 20.233363333023416 ], [ 74.052321356996316, 20.232678244023415 ], [ 74.051690180996317, 20.232916539023414 ], [ 74.051395027996321, 20.233038063023415 ], [ 74.051134767996317, 20.233145221023417 ], [ 74.051183542996313, 20.234039969023414 ], [ 74.051476151996312, 20.233897622023417 ], [ 74.052574426996316, 20.233363333023416 ] ] ] ] } },
{ "type": "Feature", "properties": { "plot_number": "1012", "status": "flagged", "confidence": 0.67, "method_note": "Simple automatic boundary shift detection" }, "geometry": { "type": "MultiPolygon", "coordinates": [ [ [ [ 74.050771275, 20.232081553 ], [ 74.050745917, 20.23169612 ], [ 74.050328798, 20.23173909 ], [ 74.049406604, 20.231834087 ], [ 74.049186489, 20.231866022 ], [ 74.049163804, 20.232043836 ], [ 74.04917632, 20.232150826 ], [ 74.049132566, 20.232961383 ], [ 74.049119565, 20.233545848 ], [ 74.049091816, 20.233891998 ], [ 74.049070352, 20.234325396 ], [ 74.049000897, 20.235707691 ], [ 74.048981081, 20.235782947 ], [ 74.0491791, 20.235663272 ], [ 74.049976094, 20.235062182 ], [ 74.05083055, 20.234432494 ], [ 74.050897608, 20.234383076 ], [ 74.050857407, 20.233563795 ], [ 74.050808632, 20.232669047 ], [ 74.050771275, 20.232081553 ] ] ] ] } },
{ "type": "Feature", "properties": { "plot_number": "1013", "status": "corrected", "confidence": 0.73, "method_note": "Simple automatic boundary shift detection" }, "geometry": { "type": "MultiPolygon", "coordinates": [ [ [ [ 74.049398515558835, 20.231667684793944 ], [ 74.049421200558825, 20.231489870793943 ], [ 74.048925579558826, 20.231534302793946 ], [ 74.048841419558826, 20.231547659793947 ], [ 74.048878081558826, 20.232323413793946 ], [ 74.048905580558838, 20.232775568793944 ], [ 74.048865994558838, 20.235195667793946 ], [ 74.049215792558826, 20.235406795793946 ], [ 74.049235608558831, 20.235331539793947 ], [ 74.049305063558833, 20.233949244793944 ], [ 74.049326527558833, 20.233515846793946 ], [ 74.04935427655883, 20.233169696793944 ], [ 74.049367277558829, 20.232585231793944 ], [ 74.049411031558833, 20.231774674793947 ], [ 74.049398515558835, 20.231667684793944 ] ] ] ] } },
{ "type": "Feature", "properties": { "plot_number": "1014", "status": "flagged", "confidence": 0.62, "method_note": "Simple automatic boundary shift detection" }, "geometry": { "type": "MultiPolygon", "coordinates": [ [ [ [ 74.049186489, 20.231866022 ], [ 74.049229021, 20.231740769 ], [ 74.048716211, 20.231773539 ], [ 74.048690868, 20.231910454 ], [ 74.049186489, 20.231866022 ] ] ] ] } },
{ "type": "Feature", "properties": { "plot_number": "1015", "status": "corrected", "confidence": 0.76, "method_note": "Simple automatic boundary shift detection" }, "geometry": { "type": "MultiPolygon", "coordinates": [ [ [ [ 74.049441376557041, 20.229711100570391 ], [ 74.049231062557041, 20.228436485570391 ], [ 74.049068034557052, 20.228452138570393 ], [ 74.048280112557052, 20.228527792570393 ], [ 74.048477718557052, 20.229756059570391 ], [ 74.048552502557044, 20.230196730570391 ], [ 74.048267543557046, 20.231723264570391 ], [ 74.048780353557049, 20.231690494570394 ], [ 74.048929001557042, 20.231393004570393 ], [ 74.048934524557041, 20.231381951570391 ], [ 74.049334815557046, 20.230580842570394 ], [ 74.049517071557048, 20.23021608757039 ], [ 74.049441376557041, 20.229711100570391 ] ] ] ] } },
{ "type": "Feature", "properties": { "plot_number": "1016", "status": "flagged", "confidence": 0.67, "method_note": "Simple automatic boundary shift detection" }, "geometry": { "type": "MultiPolygon", "coordinates": [ [ [ [ 74.044579411, 20.23221341 ], [ 74.0441432, 20.231285459 ], [ 74.042841556, 20.231735909 ], [ 74.04295435, 20.232017948 ], [ 74.043948348, 20.232647013 ], [ 74.044079889, 20.232542264 ], [ 74.044579411, 20.23221341 ] ] ] ] } },
{ "type": "Feature", "properties": { "plot_number": "1017", "status": "flagged", "confidence": 0.66, "method_note": "Simple automatic boundary shift detection" }, "geometry": { "type": "MultiPolygon", "coordinates": [ [ [ [ 74.048926386, 20.229806334 ], [ 74.04872878, 20.228578067 ], [ 74.04792937, 20.228666107 ], [ 74.048260689, 20.230441927 ], [ 74.048278866, 20.23046788 ], [ 74.048060781, 20.231981041 ], [ 74.048606708, 20.231923811 ], [ 74.048690868, 20.231910454 ], [ 74.048716211, 20.231773539 ], [ 74.04900117, 20.230247005 ], [ 74.048926386, 20.229806334 ] ] ] ] } },
{ "type": "Feature", "properties": { "plot_number": "1018", "status": "flagged", "confidence": 0.7, "method_note": "Simple automatic boundary shift detection" }, "geometry": { "type": "MultiPolygon", "coordinates": [ [ [ [ 74.048260689, 20.230441927 ], [ 74.04792937, 20.228666107 ], [ 74.047161518, 20.228749361 ], [ 74.047153628, 20.228806097 ], [ 74.047258847, 20.23021258 ], [ 74.047272876, 20.23034666 ], [ 74.047291013, 20.230559464 ], [ 74.04730418, 20.230669405 ], [ 74.047356035, 20.231213518 ], [ 74.04744849, 20.232037516 ], [ 74.047894383, 20.231996416 ], [ 74.048060781, 20.231981041 ], [ 74.048278866, 20.23046788 ], [ 74.048260689, 20.230441927 ] ] ] ] } },
{ "type": "Feature", "properties": { "plot_number": "1019", "status": "flagged", "confidence": 0.65, "method_note": "Simple automatic boundary shift detection" }, "geometry": { "type": "MultiPolygon", "coordinates": [ [ [ [ 74.049789634, 20.227724913 ], [ 74.049091127, 20.227527157 ], [ 74.049079922, 20.227557389 ], [ 74.047579378, 20.227247159 ], [ 74.047401661, 20.227217669 ], [ 74.047255662, 20.227268261 ], [ 74.046792667, 20.22739944 ], [ 74.046924989, 20.227883158 ], [ 74.046976215, 20.228070417 ], [ 74.047161518, 20.228749361 ], [ 74.04792937, 20.228666107 ], [ 74.04872878, 20.228578067 ], [ 74.049516702, 20.228502413 ], [ 74.04967973, 20.22848676 ], [ 74.049685461, 20.228427001 ], [ 74.050001136, 20.227927463 ], [ 74.050086525, 20.227792337 ], [ 74.049861631, 20.227741263 ], [ 74.049789634, 20.227724913 ] ] ] ] } },
{ "type": "Feature", "properties": { "plot_number": "102", "status": "flagged", "confidence": 0.69, "method_note": "Simple automatic boundary shift detection" }, "geometry": { "type": "MultiPolygon", "coordinates": [ [ [ [ 74.026668804, 20.263814215 ], [ 74.026004364, 20.263458178 ], [ 74.025844225, 20.263695912 ], [ 74.025795447, 20.263768326 ], [ 74.025792887, 20.263772126 ], [ 74.025479406, 20.264237505 ], [ 74.02546354, 20.264261058 ], [ 74.025556122, 20.264448294 ], [ 74.025952668, 20.265250255 ], [ 74.026010036, 20.265341089 ], [ 74.026330739, 20.264701418 ], [ 74.026403265, 20.264551984 ], [ 74.026649491, 20.263856123 ], [ 74.026668804, 20.263814215 ] ] ] ] } },
{ "type": "Feature", "properties": { "plot_number": "1020", "status": "corrected", "confidence": 0.92, "method_note": "Simple automatic boundary shift detection" }, "geometry": { "type": "MultiPolygon", "coordinates": [ [ [ [ 74.049082399175177, 20.22576626427573 ], [ 74.049344667175177, 20.224087651275731 ], [ 74.048761217175183, 20.22419713027573 ], [ 74.047956308175173, 20.22547470527573 ], [ 74.047726162175181, 20.225851178275732 ], [ 74.047188865175173, 20.226733211275732 ], [ 74.047366582175172, 20.226762701275732 ], [ 74.048867126175182, 20.227072931275732 ], [ 74.048878331175175, 20.227042699275732 ], [ 74.049082399175177, 20.22576626427573 ] ] ] ] } },
{ "type": "Feature", "properties": { "plot_number": "1021", "status": "corrected", "confidence": 0.73, "method_note": "Simple automatic boundary shift detection" }, "geometry": { "type": "MultiPolygon", "coordinates": [ [ [ [ 74.050170516990647, 20.226327657158937 ], [ 74.050420644990652, 20.224237109158938 ], [ 74.049791143990646, 20.224347021158938 ], [ 74.049528875990646, 20.226025634158937 ], [ 74.049324807990644, 20.227302069158938 ], [ 74.050023314990653, 20.227499825158937 ], [ 74.050170516990647, 20.226327657158937 ] ] ] ] } },
{ "type": "Feature", "properties": { "plot_number": "1022", "status": "flagged", "confidence": 0.56, "method_note": "Simple automatic boundary shift detection" }, "geometry": { "type": "MultiPolygon", "coordinates": [ [ [ [ 74.050709316, 20.227818997 ], [ 74.050792849, 20.227184246 ], [ 74.051778935, 20.227165183 ], [ 74.051920183, 20.227166362 ], [ 74.052216409, 20.22682274 ], [ 74.05251862, 20.22684581 ], [ 74.053062553, 20.225908422 ], [ 74.053060445, 20.225905997 ], [ 74.05129616, 20.225883426 ], [ 74.050795368, 20.225877017 ], [ 74.05087147, 20.225160633 ], [ 74.050876906, 20.225117836 ], [ 74.050978032, 20.224321647 ], [ 74.050596113, 20.224389503 ], [ 74.050186964, 20.224462197 ], [ 74.049936836, 20.226552745 ], [ 74.049789634, 20.227724913 ], [ 74.049861631, 20.227741263 ], [ 74.050086525, 20.227792337 ], [ 74.050308476, 20.227795152 ], [ 74.05037663, 20.227799206 ], [ 74.050709316, 20.227818997 ] ] ] ] } },
{ "type": "Feature", "properties": { "plot_number": "1023", "status": "flagged", "confidence": 0.5, "method_note": "Simple automatic boundary shift detection" }, "geometry": { "type": "MultiPolygon", "coordinates": [ [ [ [ 74.052157733, 20.224120267 ], [ 74.052156628, 20.224117975 ], [ 74.050978032, 20.224321647 ], [ 74.050876906, 20.225117836 ], [ 74.05087147, 20.225160633 ], [ 74.050795368, 20.225877017 ], [ 74.05129616, 20.225883426 ], [ 74.053060445, 20.225905997 ], [ 74.052980513, 20.225814019 ], [ 74.052963994, 20.225795864 ], [ 74.052912719, 20.225739508 ], [ 74.052843618, 20.225665977 ], [ 74.052818947, 20.225639657 ], [ 74.052798108, 20.225616635 ], [ 74.05277768, 20.225593319 ], [ 74.052757669, 20.225569715 ], [ 74.052741269, 20.22554972 ], [ 74.052738081, 20.225545832 ], [ 74.052718922, 20.225521676 ], [ 74.052700198, 20.225497255 ], [ 74.052681913, 20.225472577 ], [ 74.052664075, 20.225447648 ], [ 74.052646688, 20.225422476 ], [ 74.052629758, 20.22539707 ], [ 74.052613289, 20.225371437 ], [ 74.052597288, 20.225345584 ], [ 74.052581758, 20.225319519 ], [ 74.052566705, 20.225293251 ], [ 74.052478821, 20.225136602 ], [ 74.052391138, 20.224979872 ], [ 74.052371631, 20.224943613 ], [ 74.052361676, 20.224923967 ], [ 74.052352084, 20.224904195 ], [ 74.052342856, 20.224884303 ], [ 74.052333996, 20.2248643 ], [ 74.052325504, 20.224844188 ], [ 74.052317387, 20.224823975 ], [ 74.052309644, 20.224803667 ], [ 74.052302278, 20.224783271 ], [ 74.052284659, 20.224734668 ], [ 74.052268375, 20.224692279 ], [ 74.052251309, 20.22465009 ], [ 74.052247145, 20.224639542 ], [ 74.052245153, 20.224634086 ], [ 74.052243262, 20.224628607 ], [ 74.052241475, 20.224623108 ], [ 74.052239789, 20.22461759 ], [ 74.052238207, 20.224612054 ], [ 74.052236729, 20.224606502 ], [ 74.052235355, 20.224600937 ], [ 74.052234085, 20.224595359 ], [ 74.05223292, 20.22458977 ], [ 74.05223186, 20.224584173 ], [ 74.052230906, 20.224578568 ], [ 74.052230058, 20.224572958 ], [ 74.052229316, 20.224567344 ], [ 74.052228681, 20.224561728 ], [ 74.052228254, 20.224557198 ], [ 74.052228152, 20.224556112 ], [ 74.05222773, 20.224550496 ], [ 74.052227414, 20.224544885 ], [ 74.052227206, 20.224539278 ], [ 74.052227105, 20.224533677 ], [ 74.05222711, 20.224528084 ], [ 74.052227223, 20.224522502 ], [ 74.052227443, 20.224516931 ], [ 74.052227769, 20.224511373 ], [ 74.052228203, 20.22450583 ], [ 74.052228744, 20.224500303 ], [ 74.052230092, 20.224486309 ], [ 74.052231023, 20.224473998 ], [ 74.052231714, 20.224461655 ], [ 74.052232169, 20.224449281 ], [ 74.052232386, 20.224436884 ], [ 74.052232365, 20.224424464 ], [ 74.052232107, 20.224412027 ], [ 74.052231611, 20.224399576 ], [ 74.052230878, 20.224387115 ], [ 74.052229907, 20.224374648 ], [ 74.0522287, 20.224362179 ], [ 74.052227256, 20.224349711 ], [ 74.052225576, 20.224337248 ], [ 74.05222366, 20.224324794 ], [ 74.052221509, 20.224312353 ], [ 74.05221934, 20.224301057 ], [ 74.052219123, 20.224299928 ], [ 74.052216504, 20.224287523 ], [ 74.052213653, 20.224275143 ], [ 74.052210569, 20.224262791 ], [ 74.052207254, 20.224250469 ], [ 74.052203709, 20.224238184 ], [ 74.052199935, 20.224225938 ], [ 74.052195934, 20.224213734 ], [ 74.052191706, 20.224201577 ], [ 74.052187252, 20.224189471 ], [ 74.052182575, 20.224177418 ], [ 74.052172245, 20.224152468 ], [ 74.052165138, 20.224136322 ], [ 74.052157733, 20.224120267 ] ] ] ] } },
{ "type": "Feature", "properties": { "plot_number": "1024", "status": "corrected", "confidence": 0.81, "method_note": "Simple automatic boundary shift detection" }, "geometry": { "type": "MultiPolygon", "coordinates": [ [ [ [ 74.051155138524791, 20.223378106754524 ], [ 74.051154781524801, 20.223347632754525 ], [ 74.0505493495248, 20.223499035754525 ], [ 74.050425480524794, 20.223530012754523 ], [ 74.050030944524792, 20.223628675754522 ], [ 74.049270150524791, 20.223818925754525 ], [ 74.048616533524793, 20.223982371754524 ], [ 74.048613914524793, 20.224005206754523 ], [ 74.048541825524794, 20.224761662754524 ], [ 74.049198224524801, 20.224650693754523 ], [ 74.049781674524795, 20.224541214754524 ], [ 74.0504111755248, 20.224431302754525 ], [ 74.050820324524793, 20.224358608754525 ], [ 74.051202243524799, 20.224290752754523 ], [ 74.051239472524799, 20.223989006754522 ], [ 74.051320633524796, 20.223603478754523 ], [ 74.051155138524791, 20.223378106754524 ] ] ] ] } },
{ "type": "Feature", "properties": { "plot_number": "1025", "status": "corrected", "confidence": 0.94, "method_note": "Simple automatic boundary shift detection" }, "geometry": { "type": "MultiPolygon", "coordinates": [ [ [ [ 74.051422585747218, 20.221318094206492 ], [ 74.051411081747219, 20.221311180206492 ], [ 74.051348704747227, 20.222970165206494 ], [ 74.051349061747217, 20.223000639206493 ], [ 74.051514556747222, 20.223226011206492 ], [ 74.051550715747226, 20.223268338206491 ], [ 74.052231302747217, 20.223278162206494 ], [ 74.052208432747221, 20.223255187206494 ], [ 74.052148768747216, 20.223193627206491 ], [ 74.052062441747225, 20.223104561206494 ], [ 74.052043197747224, 20.223083892206493 ], [ 74.052031909747228, 20.223071234206493 ], [ 74.052020847747215, 20.223058417206492 ], [ 74.052010014747225, 20.223045445206491 ], [ 74.051999415747218, 20.223032322206492 ], [ 74.051989050747224, 20.223019052206492 ], [ 74.051978925747221, 20.223005638206491 ], [ 74.051969043747221, 20.222992086206492 ], [ 74.051959405747226, 20.222978399206493 ], [ 74.051950015747224, 20.222964581206494 ], [ 74.051940876747224, 20.222950636206491 ], [ 74.051931991747225, 20.222936569206492 ], [ 74.051923362747218, 20.222922385206491 ], [ 74.051914993747218, 20.222908087206491 ], [ 74.051906884747225, 20.222893679206493 ], [ 74.05189904174722, 20.222879166206493 ], [ 74.051891463747225, 20.222864553206492 ], [ 74.051884154747228, 20.222849844206493 ], [ 74.051877117747225, 20.222835044206494 ], [ 74.051870351747226, 20.222820157206492 ], [ 74.051863862747226, 20.222805186206493 ], [ 74.051857650747223, 20.222790138206491 ], [ 74.051851717747226, 20.222775017206494 ], [ 74.051847715747215, 20.222764872206493 ], [ 74.051844202747219, 20.222756445206493 ], [ 74.051840534747228, 20.222748064206492 ], [ 74.051836713747221, 20.222739729206491 ], [ 74.051832738747223, 20.222731443206492 ], [ 74.051828611747226, 20.222723209206492 ], [ 74.051824334747224, 20.222715029206494 ], [ 74.05181990874722, 20.222706906206493 ], [ 74.051815335747222, 20.222698843206494 ], [ 74.051810614747225, 20.222690840206493 ], [ 74.051805750747221, 20.222682903206493 ], [ 74.051800742747218, 20.222675032206492 ], [ 74.051795591747222, 20.222667230206493 ], [ 74.051790300747214, 20.222659499206493 ], [ 74.05178367674722, 20.222649779206492 ], [ 74.051778452747214, 20.222641799206492 ], [ 74.051773373747224, 20.222633749206494 ], [ 74.051768442747218, 20.222625631206494 ], [ 74.051763657747216, 20.222617448206492 ], [ 74.051759024747227, 20.222609203206492 ], [ 74.051754540747226, 20.222600898206494 ], [ 74.051750211747219, 20.222592536206491 ], [ 74.051746034747225, 20.222584118206491 ], [ 74.051742012747226, 20.222575648206494 ], [ 74.051738147747216, 20.222567130206492 ], [ 74.051734440747225, 20.222558563206494 ], [ 74.051730890747223, 20.222549952206492 ], [ 74.051727501747223, 20.222541299206494 ], [ 74.051724273747226, 20.222532608206492 ], [ 74.051721205747228, 20.222523879206491 ], [ 74.051718301747215, 20.222515116206491 ], [ 74.051715560747226, 20.222506322206492 ], [ 74.051712983747223, 20.222497500206494 ], [ 74.051710572747226, 20.222488652206493 ], [ 74.051708327747221, 20.222479780206491 ], [ 74.051706248747223, 20.222470888206491 ], [ 74.051704337747225, 20.222461978206493 ], [ 74.051702593747223, 20.222453053206493 ], [ 74.05170101774722, 20.222444116206493 ], [ 74.051699611747225, 20.222435169206491 ], [ 74.051698373747215, 20.222426215206493 ], [ 74.051697305747226, 20.222417257206494 ], [ 74.051696407747215, 20.222408297206492 ], [ 74.051695679747226, 20.222399339206493 ], [ 74.051695122747219, 20.222390385206491 ], [ 74.051694735747219, 20.222381438206494 ], [ 74.051694519747215, 20.222372499206493 ], [ 74.051694474747222, 20.222363573206493 ], [ 74.051694599747222, 20.222354662206492 ], [ 74.051695068747222, 20.222285934206493 ], [ 74.051694887747217, 20.222276656206493 ], [ 74.051694303747226, 20.222246719206492 ], [ 74.051692787747214, 20.222207460206494 ], [ 74.051690523747226, 20.222168168206494 ], [ 74.051687512747222, 20.222128856206492 ], [ 74.051684521747219, 20.222097570206493 ], [ 74.051683753747227, 20.222089535206493 ], [ 74.051679247747217, 20.222050218206494 ], [ 74.051673998747219, 20.222010916206493 ], [ 74.051672757747227, 20.222001457206492 ], [ 74.051671932747226, 20.221993931206491 ], [ 74.051671249747216, 20.221986405206493 ], [ 74.051670709747228, 20.221978882206493 ], [ 74.051670313747223, 20.221971363206492 ], [ 74.051670060747227, 20.221963851206493 ], [ 74.051669951747215, 20.221956347206493 ], [ 74.051669985747225, 20.221948856206492 ], [ 74.051670161747225, 20.221941377206491 ], [ 74.051670482747227, 20.221933916206492 ], [ 74.051670946747223, 20.221926472206494 ], [ 74.051671553747227, 20.221919048206491 ], [ 74.051672304747228, 20.221911648206493 ], [ 74.051673196747217, 20.221904271206494 ], [ 74.051674232747217, 20.221896923206494 ], [ 74.051675409747219, 20.221889604206492 ], [ 74.051676728747225, 20.221882317206493 ], [ 74.051678188747218, 20.221875063206493 ], [ 74.051679791747219, 20.221867846206493 ], [ 74.051681532747224, 20.221860667206492 ], [ 74.051683414747217, 20.221853529206491 ], [ 74.051685436747221, 20.221846433206494 ], [ 74.051687596747215, 20.221839382206493 ], [ 74.051689894747227, 20.221832378206493 ], [ 74.051691799747218, 20.221826451206493 ], [ 74.051692881747215, 20.221822756206492 ], [ 74.051693892747224, 20.221819037206494 ], [ 74.05169482974722, 20.221815298206494 ], [ 74.05169569374722, 20.221811539206492 ], [ 74.051696483747222, 20.221807760206492 ], [ 74.051697200747228, 20.221803962206494 ], [ 74.05169784374722, 20.221800148206494 ], [ 74.051698412747214, 20.221796319206494 ], [ 74.051698907747223, 20.221792474206492 ], [ 74.051699327747215, 20.221788615206492 ], [ 74.051699672747219, 20.221784745206492 ], [ 74.05169994274722, 20.221780863206494 ], [ 74.051700138747222, 20.221776972206492 ], [ 74.051700259747221, 20.221773072206492 ], [ 74.051700306747222, 20.221769164206492 ], [ 74.051700277747216, 20.221765249206491 ], [ 74.051700174747225, 20.221761330206494 ], [ 74.051699995747228, 20.221757407206493 ], [ 74.051699742747218, 20.221753480206491 ], [ 74.051699414747219, 20.221749553206493 ], [ 74.051699012747221, 20.221745624206491 ], [ 74.051698535747221, 20.221741697206493 ], [ 74.051697984747221, 20.221737771206492 ], [ 74.051697358747219, 20.221733849206494 ], [ 74.051696659747222, 20.221729931206493 ], [ 74.051695886747225, 20.221726019206493 ], [ 74.051695039747216, 20.221722112206493 ], [ 74.051694119747225, 20.221718215206494 ], [ 74.051693126747224, 20.221714326206492 ], [ 74.051692060747214, 20.221710448206494 ], [ 74.051690922747227, 20.221706581206494 ], [ 74.051689712747219, 20.221702727206491 ], [ 74.05168843074722, 20.221698886206493 ], [ 74.051687078747221, 20.221695061206493 ], [ 74.051685653747228, 20.221691252206494 ], [ 74.051680842747217, 20.221678379206491 ], [ 74.051676286747224, 20.221665496206494 ], [ 74.051671970747222, 20.221652562206494 ], [ 74.051667895747215, 20.221639581206492 ], [ 74.051664063747225, 20.221626558206491 ], [ 74.051660474747223, 20.221613496206494 ], [ 74.05165713174722, 20.221600400206494 ], [ 74.051654614747221, 20.221590743206491 ], [ 74.051652840747224, 20.221584524206492 ], [ 74.051650949747227, 20.221578324206494 ], [ 74.051648942747221, 20.221572146206494 ], [ 74.051646822747216, 20.221565991206493 ], [ 74.051644587747219, 20.221559861206494 ], [ 74.05164223874722, 20.221553759206493 ], [ 74.051639777747226, 20.221547685206492 ], [ 74.051637204747223, 20.221541642206493 ], [ 74.051634519747225, 20.221535630206493 ], [ 74.051631725747228, 20.221529655206492 ], [ 74.051628820747226, 20.221523714206494 ], [ 74.051625808747218, 20.221517812206493 ], [ 74.051622688747216, 20.221511950206494 ], [ 74.051619460747219, 20.221506129206492 ], [ 74.051616128747227, 20.221500352206494 ], [ 74.05161269074722, 20.221494620206492 ], [ 74.051609149747222, 20.221488935206494 ], [ 74.051605504747215, 20.221483298206493 ], [ 74.051601759747214, 20.221477712206493 ], [ 74.051597913747216, 20.221472178206493 ], [ 74.051593968747227, 20.221466697206491 ], [ 74.051589924747219, 20.221461272206493 ], [ 74.051585785747221, 20.221455903206493 ], [ 74.051581549747226, 20.221450595206491 ], [ 74.05157722074722, 20.221445345206494 ], [ 74.051572797747227, 20.221440157206494 ], [ 74.051568284747219, 20.221435034206493 ], [ 74.051563679747218, 20.221429975206494 ], [ 74.051558986747224, 20.221424983206493 ], [ 74.051554206747227, 20.221420059206494 ], [ 74.051541477747222, 20.221407525206494 ], [ 74.051534298747228, 20.221400767206493 ], [ 74.051527002747221, 20.221394114206493 ], [ 74.051519591747223, 20.221387568206492 ], [ 74.051511924747217, 20.221381143206493 ], [ 74.051504436747223, 20.221374807206491 ], [ 74.051496696747222, 20.221368596206492 ], [ 74.051488850747219, 20.221362500206492 ], [ 74.051480902747215, 20.221356521206491 ], [ 74.051472852747224, 20.221350661206493 ], [ 74.051464705747222, 20.221344921206494 ], [ 74.051456462747225, 20.221339304206492 ], [ 74.051448126747218, 20.221333811206492 ], [ 74.05143969974722, 20.221328444206492 ], [ 74.051431185747219, 20.221323205206492 ], [ 74.051422585747218, 20.221318094206492 ] ] ] ] } },
{ "type": "Feature", "properties": { "plot_number": "1026", "status": "flagged", "confidence": 0.69, "method_note": "Simple automatic boundary shift detection" }, "geometry": { "type": "MultiPolygon", "coordinates": [ [ [ [ 74.050344897, 20.22025119 ], [ 74.050295325, 20.219803504 ], [ 74.050171669, 20.219812433 ], [ 74.049888434, 20.219821987 ], [ 74.050028947, 20.22068156 ], [ 74.050241824, 20.221983792 ], [ 74.050267272, 20.222446832 ], [ 74.050318743, 20.223410767 ], [ 74.050325138, 20.22352993 ], [ 74.05093057, 20.223378527 ], [ 74.050992947, 20.221719542 ], [ 74.050969548, 20.221705481 ], [ 74.050948541, 20.221692266 ], [ 74.050927757, 20.221678736 ], [ 74.050907201, 20.221664897 ], [ 74.050886881, 20.221650751 ], [ 74.050873121, 20.221640852 ], [ 74.050866802, 20.221636305 ], [ 74.05084697, 20.221621562 ], [ 74.050827392, 20.221606526 ], [ 74.050808073, 20.221591202 ], [ 74.05078902, 20.221575596 ], [ 74.050770238, 20.221559711 ], [ 74.050751733, 20.221543553 ], [ 74.05073351, 20.221527125 ], [ 74.050715577, 20.221510434 ], [ 74.050697936, 20.221493484 ], [ 74.050680594, 20.221476281 ], [ 74.050663556, 20.22145883 ], [ 74.050656848, 20.221451734 ], [ 74.050646827, 20.221441136 ], [ 74.050630414, 20.221423204 ], [ 74.05061432, 20.221405041 ], [ 74.05059855, 20.221386651 ], [ 74.050592279, 20.221378987 ], [ 74.050588977, 20.221374752 ], [ 74.05058575, 20.221370473 ], [ 74.050582601, 20.221366149 ], [ 74.05057953, 20.221361782 ], [ 74.050576538, 20.221357374 ], [ 74.050573626, 20.221352925 ], [ 74.050570795, 20.221348437 ], [ 74.050568047, 20.221343912 ], [ 74.05056538, 20.221339351 ], [ 74.050562797, 20.221334755 ], [ 74.050560298, 20.221330125 ], [ 74.050557885, 20.221325463 ], [ 74.050555557, 20.221320771 ], [ 74.050553315, 20.22131605 ], [ 74.050551161, 20.221311301 ], [ 74.050549094, 20.221306525 ], [ 74.050547116, 20.221301725 ], [ 74.050545227, 20.221296902 ], [ 74.050543428, 20.221292056 ], [ 74.050541718, 20.221287191 ], [ 74.050540099, 20.221282306 ], [ 74.050538572, 20.221277404 ], [ 74.050537136, 20.221272486 ], [ 74.050535791, 20.221267554 ], [ 74.050534541, 20.221262608 ], [ 74.050533382, 20.221257651 ], [ 74.050532316, 20.221252684 ], [ 74.050531344, 20.221247709 ], [ 74.050530467, 20.221242727 ], [ 74.050529682, 20.22123774 ], [ 74.050528993, 20.221232748 ], [ 74.050528398, 20.221227755 ], [ 74.050527897, 20.221222761 ], [ 74.050527492, 20.221217767 ], [ 74.050526738, 20.221209383 ], [ 74.050526224, 20.221205008 ], [ 74.050525627, 20.221200636 ], [ 74.050524947, 20.221196266 ], [ 74.050524185, 20.221191903 ], [ 74.05052334, 20.221187544 ], [ 74.050522414, 20.221183192 ], [ 74.050521406, 20.221178849 ], [ 74.050520316, 20.221174516 ], [ 74.050519146, 20.221170195 ], [ 74.050517895, 20.221165886 ], [ 74.050516563, 20.221161591 ], [ 74.050515152, 20.22115731 ], [ 74.05051366, 20.221153046 ], [ 74.050512091, 20.2211488 ], [ 74.050510443, 20.221144574 ], [ 74.050508717, 20.221140367 ], [ 74.050506913, 20.221136182 ], [ 74.050505031, 20.22113202 ], [ 74.050503075, 20.221127882 ], [ 74.050501042, 20.22112377 ], [ 74.050498934, 20.221119684 ], [ 74.050496751, 20.221115627 ], [ 74.050494495, 20.221111598 ], [ 74.050492165, 20.2211076 ], [ 74.050489763, 20.221103633 ], [ 74.050487289, 20.221099699 ], [ 74.050482378, 20.221091858 ], [ 74.05047848, 20.221085365 ], [ 74.050474699, 20.221078822 ], [ 74.050471039, 20.221072229 ], [ 74.050467499, 20.221065589 ], [ 74.050464082, 20.221058904 ], [ 74.050460787, 20.221052175 ], [ 74.050457617, 20.221045406 ], [ 74.050454571, 20.221038598 ], [ 74.050451652, 20.221031752 ], [ 74.050448859, 20.221024871 ], [ 74.050446194, 20.221017958 ], [ 74.050443658, 20.221011015 ], [ 74.050441249, 20.221004042 ], [ 74.050438973, 20.220997044 ], [ 74.050436826, 20.220990021 ], [ 74.05043481, 20.220982976 ], [ 74.050432927, 20.22097591 ], [ 74.050431176, 20.220968827 ], [ 74.050429558, 20.220961728 ], [ 74.050428074, 20.220954616 ], [ 74.050426723, 20.220947492 ], [ 74.050425507, 20.220940359 ], [ 74.050424425, 20.22093322 ], [ 74.05042348, 20.220926075 ], [ 74.050422669, 20.220918927 ], [ 74.050421994, 20.220911779 ], [ 74.050421455, 20.220904632 ], [ 74.050421052, 20.22089749 ], [ 74.050420784, 20.220890353 ], [ 74.050418894, 20.220844031 ], [ 74.050416731, 20.220809784 ], [ 74.050413915, 20.220775522 ], [ 74.050410448, 20.220741256 ], [ 74.050406333, 20.220706996 ], [ 74.050401568, 20.220672753 ], [ 74.050361967, 20.22037818 ], [ 74.050344897, 20.22025119 ] ] ] ] } },
{ "type": "Feature", "properties": { "plot_number": "1027", "status": "corrected", "confidence": 0.85, "method_note": "Simple automatic boundary shift detection" }, "geometry": { "type": "MultiPolygon", "coordinates": [ [ [ [ 74.050282695189949, 20.223557435296577 ], [ 74.050231224189943, 20.222593500296576 ], [ 74.050205776189941, 20.222130460296576 ], [ 74.049992899189945, 20.220828228296575 ], [ 74.04985238618994, 20.219968655296576 ], [ 74.049457467189939, 20.219981977296577 ], [ 74.049509150189948, 20.220674838296578 ], [ 74.049536297189945, 20.221026432296576 ], [ 74.04955289718994, 20.221231454296575 ], [ 74.049558332189946, 20.221298582296576 ], [ 74.049559544189947, 20.221337020296577 ], [ 74.049567008189939, 20.221450509296577 ], [ 74.049588185189947, 20.221680964296578 ], [ 74.049634944189947, 20.222214167296578 ], [ 74.049680187189949, 20.222740568296576 ], [ 74.049740106189944, 20.223416326296576 ], [ 74.049831045189947, 20.223404665296577 ], [ 74.049917695189947, 20.223388113296576 ], [ 74.049916925189947, 20.223245119296575 ], [ 74.049909600189949, 20.223089625296577 ], [ 74.049910452189948, 20.223058428296575 ], [ 74.050005991189948, 20.223048668296578 ], [ 74.050031534189941, 20.223358342296578 ], [ 74.050107209189946, 20.223355435296575 ], [ 74.050145153189945, 20.223345099296576 ], [ 74.050155726189942, 20.223450107296575 ], [ 74.050162589189938, 20.223569253296578 ], [ 74.050165221189943, 20.223707575296576 ], [ 74.050289090189949, 20.223676598296578 ], [ 74.050282695189949, 20.223557435296577 ] ] ] ] } },
{ "type": "Feature", "properties": { "plot_number": "1028", "status": "flagged", "confidence": 0.67, "method_note": "Simple automatic boundary shift detection" }, "geometry": { "type": "MultiPolygon", "coordinates": [ [ [ [ 74.050191774, 20.223303439 ], [ 74.050181201, 20.223198431 ], [ 74.050143257, 20.223208767 ], [ 74.050067582, 20.223211674 ], [ 74.050042039, 20.222902 ], [ 74.0499465, 20.22291176 ], [ 74.049945648, 20.222942957 ], [ 74.049952973, 20.223098451 ], [ 74.049953743, 20.223241445 ], [ 74.049867093, 20.223257997 ], [ 74.049776154, 20.223269658 ], [ 74.049806733, 20.22365957 ], [ 74.050201269, 20.223560907 ], [ 74.050198637, 20.223422585 ], [ 74.050191774, 20.223303439 ] ] ] ] } },
{ "type": "Feature", "properties": { "plot_number": "1029", "status": "flagged", "confidence": 0.65, "method_note": "Simple automatic boundary shift detection" }, "geometry": { "type": "MultiPolygon", "coordinates": [ [ [ [ 74.049545198, 20.22052817 ], [ 74.049493515, 20.219835309 ], [ 74.049093846, 20.219848791 ], [ 74.049079128, 20.220635285 ], [ 74.049069527, 20.221152912 ], [ 74.049063984, 20.221595644 ], [ 74.049063783, 20.221611791 ], [ 74.049058662, 20.222020866 ], [ 74.049051608, 20.222598383 ], [ 74.049043933, 20.222710432 ], [ 74.049041773, 20.22309431 ], [ 74.049045939, 20.22384982 ], [ 74.049806733, 20.22365957 ], [ 74.049776154, 20.223269658 ], [ 74.049716235, 20.2225939 ], [ 74.049670992, 20.222067499 ], [ 74.049624233, 20.221534296 ], [ 74.049603056, 20.221303841 ], [ 74.049595592, 20.221190352 ], [ 74.04959438, 20.221151914 ], [ 74.049588945, 20.221084786 ], [ 74.049572345, 20.220879764 ], [ 74.049545198, 20.22052817 ] ] ] ] } },
{ "type": "Feature", "properties": { "plot_number": "103", "status": "corrected", "confidence": 0.82, "method_note": "Simple automatic boundary shift detection" }, "geometry": { "type": "MultiPolygon", "coordinates": [ [ [ [ 74.02760215724949, 20.264823715216519 ], [ 74.026222633249489, 20.264510354216519 ], [ 74.025901930249489, 20.265150025216517 ], [ 74.026125841249481, 20.265439590216516 ], [ 74.02619984824949, 20.265560727216517 ], [ 74.027718196249481, 20.265528892216519 ], [ 74.027573591249492, 20.265077796216517 ], [ 74.02760215724949, 20.264823715216519 ] ] ] ] } },
{ "type": "Feature", "properties": { "plot_number": "1030", "status": "flagged", "confidence": 0.57, "method_note": "Simple automatic boundary shift detection" }, "geometry": { "type": "MultiPolygon", "coordinates": [ [ [ [ 74.049079128, 20.220635285 ], [ 74.049093846, 20.219848791 ], [ 74.048835435, 20.219857507 ], [ 74.048732348, 20.220747327 ], [ 74.048586942, 20.222098296 ], [ 74.048585595, 20.222110808 ], [ 74.048498728, 20.222917877 ], [ 74.048392322, 20.224013266 ], [ 74.049045939, 20.22384982 ], [ 74.049041773, 20.22309431 ], [ 74.049043933, 20.222710432 ], [ 74.049051608, 20.222598383 ], [ 74.049058662, 20.222020866 ], [ 74.049063783, 20.221611791 ], [ 74.049063984, 20.221595644 ], [ 74.049069527, 20.221152912 ], [ 74.049079128, 20.220635285 ] ] ] ] } },
{ "type": "Feature", "properties": { "plot_number": "1031", "status": "corrected", "confidence": 0.76, "method_note": "Simple automatic boundary shift detection" }, "geometry": { "type": "MultiPolygon", "coordinates": [ [ [ [ 74.048775261703653, 20.220979584895929 ], [ 74.048878348703653, 20.220089764895928 ], [ 74.04795291670365, 20.220120975895927 ], [ 74.047733406703657, 20.220128377895929 ], [ 74.047310692703647, 20.220810147895929 ], [ 74.046955754703646, 20.221382281895927 ], [ 74.046478336703657, 20.222180753895927 ], [ 74.046129761703654, 20.222744894895929 ], [ 74.045474192703651, 20.223841708895929 ], [ 74.045065406703657, 20.224487450895928 ], [ 74.04843261670365, 20.224268358895927 ], [ 74.04843523570365, 20.224245523895927 ], [ 74.04854164170365, 20.223150134895928 ], [ 74.048628508703658, 20.222343065895927 ], [ 74.048629855703652, 20.222330553895926 ], [ 74.048775261703653, 20.220979584895929 ] ] ] ] } },
{ "type": "Feature", "properties": { "plot_number": "1032", "status": "corrected", "confidence": 0.85, "method_note": "Simple automatic boundary shift detection" }, "geometry": { "type": "MultiPolygon", "coordinates": [ [ [ [ 74.0446785668383, 20.224559386501056 ], [ 74.043316833838304, 20.224253985501054 ], [ 74.043078793838305, 20.224592010501055 ], [ 74.044524613838306, 20.224800460501054 ], [ 74.0446785668383, 20.224559386501056 ] ] ] ] } },
{ "type": "Feature", "properties": { "plot_number": "1033", "status": "flagged", "confidence": 0.5, "method_note": "Simple automatic boundary shift detection" }, "geometry": { "type": "MultiPolygon", "coordinates": [ [ [ [ 74.044710871, 20.224475304 ], [ 74.043265051, 20.224266854 ], [ 74.042834759, 20.224903358 ], [ 74.044392281, 20.224976719 ], [ 74.044710871, 20.224475304 ] ] ] ] } },
{ "type": "Feature", "properties": { "plot_number": "1034", "status": "corrected", "confidence": 0.84, "method_note": "Simple automatic boundary shift detection" }, "geometry": { "type": "MultiPolygon", "coordinates": [ [ [ [ 74.044143130247519, 20.225356678345094 ], [ 74.042585608247521, 20.225283317345092 ], [ 74.042319545247523, 20.225665783345093 ], [ 74.042237663247519, 20.225786408345094 ], [ 74.043834543247513, 20.225848214345092 ], [ 74.044143130247519, 20.225356678345094 ] ] ] ] } },
{ "type": "Feature", "properties": { "plot_number": "1035", "status": "corrected", "confidence": 0.77, "method_note": "Simple automatic boundary shift detection" }, "geometry": { "type": "MultiPolygon", "coordinates": [ [ [ [ 74.048244862118622, 20.225259483284479 ], [ 74.048316951118622, 20.224503027284477 ], [ 74.044949741118629, 20.224722119284479 ], [ 74.04449989011863, 20.225406710284478 ], [ 74.044127093118618, 20.225985684284478 ], [ 74.046382361118617, 20.225584264284478 ], [ 74.048244862118622, 20.225259483284479 ] ] ] ] } },
{ "type": "Feature", "properties": { "plot_number": "1036", "status": "flagged", "confidence": 0.62, "method_note": "Simple automatic boundary shift detection" }, "geometry": { "type": "MultiPolygon", "coordinates": [ [ [ [ 74.048169104, 20.225959163 ], [ 74.048974013, 20.224681588 ], [ 74.048317614, 20.224792557 ], [ 74.046455113, 20.225117338 ], [ 74.044199845, 20.225518758 ], [ 74.043593691, 20.226473993 ], [ 74.04610424, 20.226186225 ], [ 74.048169104, 20.225959163 ] ] ] ] } },
{ "type": "Feature", "properties": { "plot_number": "1037", "status": "corrected", "confidence": 0.89, "method_note": "Simple automatic boundary shift detection" }, "geometry": { "type": "MultiPolygon", "coordinates": [ [ [ [ 74.047552474955467, 20.226374090495156 ], [ 74.047782620955459, 20.225997617495153 ], [ 74.045717756955469, 20.226224679495154 ], [ 74.043207207955462, 20.226512447495153 ], [ 74.042976755955465, 20.226869596495156 ], [ 74.042577091955465, 20.227486625495153 ], [ 74.04381240495546, 20.227466730495156 ], [ 74.046406183955469, 20.227437894495154 ], [ 74.046869178955461, 20.227306715495153 ], [ 74.047015177955458, 20.227256123495156 ], [ 74.047552474955467, 20.226374090495156 ] ] ] ] } },
{ "type": "Feature", "properties": { "plot_number": "1038", "status": "flagged", "confidence": 0.55, "method_note": "Simple automatic boundary shift detection" }, "geometry": { "type": "MultiPolygon", "coordinates": [ [ [ [ 74.046924989, 20.227883158 ], [ 74.046792667, 20.22739944 ], [ 74.044198888, 20.227428276 ], [ 74.044216228, 20.227844104 ], [ 74.044282762, 20.229439602 ], [ 74.047153628, 20.228806097 ], [ 74.047161518, 20.228749361 ], [ 74.046976215, 20.228070417 ], [ 74.046924989, 20.227883158 ] ] ] ] } },
{ "type": "Feature", "properties": { "plot_number": "1039", "status": "flagged", "confidence": 0.52, "method_note": "Simple automatic boundary shift detection" }, "geometry": { "type": "MultiPolygon", "coordinates": [ [ [ [ 74.044216228, 20.227844104 ], [ 74.044198888, 20.227428276 ], [ 74.042963575, 20.227448171 ], [ 74.042705403, 20.227822304 ], [ 74.042697634, 20.227833562 ], [ 74.042519295, 20.22813065 ], [ 74.041885897, 20.229101184 ], [ 74.041503447, 20.229690564 ], [ 74.041718065, 20.230018979 ], [ 74.043013873, 20.229721792 ], [ 74.044282762, 20.229439602 ], [ 74.044216228, 20.227844104 ] ] ] ] } },
{ "type": "Feature", "properties": { "plot_number": "104", "status": "corrected", "confidence": 0.9, "method_note": "Simple automatic boundary shift detection" }, "geometry": { "type": "MultiPolygon", "coordinates": [ [ [ [ 74.028548876617478, 20.266365752674638 ], [ 74.02828810361747, 20.265492360674639 ], [ 74.02676975561748, 20.265524195674637 ], [ 74.027191018617472, 20.266374185674636 ], [ 74.027306919617473, 20.267299937674636 ], [ 74.027995722617476, 20.266826485674638 ], [ 74.028224776617478, 20.266673558674636 ], [ 74.028384589617474, 20.266561820674639 ], [ 74.028588257617471, 20.266415245674636 ], [ 74.028548876617478, 20.266365752674638 ] ] ] ] } },
{ "type": "Feature", "properties": { "plot_number": "1040", "status": "corrected", "confidence": 0.85, "method_note": "Simple automatic boundary shift detection" }, "geometry": { "type": "MultiPolygon", "coordinates": [ [ [ [ 74.047717805954818, 20.230515624964987 ], [ 74.047612586954827, 20.229109141964987 ], [ 74.044741720954818, 20.229742646964986 ], [ 74.04347283195483, 20.230024836964986 ], [ 74.042177023954821, 20.230322023964987 ], [ 74.042418617954823, 20.230686267964987 ], [ 74.042702784954827, 20.231121927964988 ], [ 74.043239649954828, 20.231921258964988 ], [ 74.043300514954822, 20.232038953964988 ], [ 74.044602158954817, 20.231588503964986 ], [ 74.044940218954821, 20.231474113964985 ], [ 74.045310516954828, 20.231330415964987 ], [ 74.047717805954818, 20.230515624964987 ] ] ] ] } },
{ "type": "Feature", "properties": { "plot_number": "1041", "status": "flagged", "confidence": 0.62, "method_note": "Simple automatic boundary shift detection" }, "geometry": { "type": "MultiPolygon", "coordinates": [ [ [ [ 74.047272876, 20.23034666 ], [ 74.047258847, 20.23021258 ], [ 74.044851558, 20.231027371 ], [ 74.044955945, 20.2312655 ], [ 74.046016568, 20.230836869 ], [ 74.046190379, 20.230770779 ], [ 74.047272876, 20.23034666 ] ] ] ] } },
{ "type": "Feature", "properties": { "plot_number": "1042", "status": "corrected", "confidence": 0.92, "method_note": "Simple automatic boundary shift detection" }, "geometry": { "type": "MultiPolygon", "coordinates": [ [ [ [ 74.047725013301516, 20.230617583664078 ], [ 74.047706876301504, 20.230404779664077 ], [ 74.046624379301505, 20.230828898664079 ], [ 74.046770799301513, 20.23109791566408 ], [ 74.047725013301516, 20.230617583664078 ] ] ] ] } }
]
}
